$$SOE
2460147.500000000, A.D. 2023-Jul-22 00:00:00.0000, -4.821748176940865E+08, -7.116415000442800E+07, -3.569752184202805E+07,
2460154.500000000, A.D. 2023-Jul-29 00:00:00.0000, -4.810111440680454E+08, -8.117059938209258E+07, -3.404154651879073E+07,
2460161.500000000, A.D. 2023-Aug-05 00:00:00.0000, -4.796478323509821E+08, -9.114336709001088E+07, -3.237143604764841E+07,
2460168.500000000, A.D. 2023-Aug-12 00:00:00.0000, -4.780858224855964E+08, -1.010783851398059E+08, -3.068790872838933E+07,
2460175.500000000, A.D. 2023-Aug-19 00:00:00.0000, -4.763261450566802E+08, -1.109716193942765E+08, -2.899168655111735E+07,
2460182.500000000, A.D. 2023-Aug-26 00:00:00.0000, -4.743699200204442E+08, -1.208190716690922E+08, -2.728349472924403E+07,
2460189.500000000, A.D. 2023-Sep-02 00:00:00.0000, -4.722183553956892E+08, -1.306167818491509E+08, -2.556406123991681E+07,
2460196.500000000, A.D. 2023-Sep-09 00:00:00.0000, -4.698727458828273E+08, -1.403608300589477E+08, -2.383411637907882E+07,
2460203.500000000, A.D. 2023-Sep-16 00:00:00.0000, -4.673344712450327E+08, -1.500473389432875E+08, -2.209439235179944E+07,
2460210.500000000, A.D. 2023-Sep-23 00:00:00.0000, -4.646049940378137E+08, -1.596724757699595E+08, -2.034562291304523E+07,
2460217.500000000, A.D. 2023-Sep-30 00:00:00.0000, -4.616858570290309E+08, -1.692324531621673E+08, -1.858854293078852E+07,
2460224.500000000, A.D. 2023-Oct-07 00:00:00.0000, -4.585786826655123E+08, -1.787235290026067E+08, -1.682388770029952E+07,
2460231.500000000, A.D. 2023-Oct-14 00:00:00.0000, -4.552851735499551E+08, -1.881420088220690E+08, -1.505239237623197E+07,
2460238.500000000, A.D. 2023-Oct-21 00:00:00.0000, -4.518071107036821E+08, -1.974842490688757E+08, -1.327479168796098E+07,
2460245.500000000, A.D. 2023-Oct-28 00:00:00.0000, -4.481463510423095E+08, -2.067466589972948E+08, -1.149181962282312E+07,
2460252.500000000, A.D. 2023-Nov-04 00:00:00.0000, -4.443048253161857E+08, -2.159257019443610E+08, -9.704209025583878E+06,
2460259.500000000, A.D. 2023-Nov-11 00:00:00.0000, -4.402845363405417E+08, -2.250178965949805E+08, -7.912691179626971E+06,
2460266.500000000, A.D. 2023-Nov-18 00:00:00.0000, -4.360875572991483E+08, -2.340198182998009E+08, -6.117995395456374E+06,
2460273.500000000, A.D. 2023-Nov-25 00:00:00.0000, -4.317160300520515E+08, -2.429281004232270E+08, -4.320848611479908E+06,
2460280.500000000, A.D. 2023-Dec-02 00:00:00.0000, -4.271721634223397E+08, -2.517394357326730E+08, -2.521975010672346E+06,
2460287.500000000, A.D. 2023-Dec-09 00:00:00.0000, -4.224582313870613E+08, -2.604505778880198E+08, -7.220956652042419E+05,
2460294.500000000, A.D. 2023-Dec-16 00:00:00.0000, -4.175765708876793E+08, -2.690583430189553E+08, 1.078071765431538E+06,
2460301.500000000, A.D. 2023-Dec-23 00:00:00.0000, -4.125295789144787E+08, -2.775596107030115E+08, 2.877813306781188E+06,
2460308.500000000, A.D. 2023-Dec-30 00:00:00.0000, -4.073197102077179E+08, -2.859513232952368E+08, 4.676419120671853E+06,
2460315.500000000, A.D. 2024-Jan-06 00:00:00.0000, -4.019494773504823E+08, -2.942304859708402E+08, 6.473184104608014E+06,
2460322.500000000, A.D. 2024-Jan-13 00:00:00.0000, -3.964214500839015E+08, -3.023941692887012E+08, 8.267408200270921E+06,
2460329.500000000, A.D. 2024-Jan-20 00:00:00.0000, -3.907382526244781E+08, -3.104395111910751E+08, 1.005839655075428E+07,
2460336.500000000, A.D. 2024-Jan-27 00:00:00.0000, -3.849025610138051E+08, -3.183637177863188E+08, 1.184545974570103E+07,
2460343.500000000, A.D. 2024-Feb-03 00:00:00.0000, -3.789171009293911E+08, -3.261640638631217E+08, 1.362791411571611E+07,
2460350.500000000, A.D. 2024-Feb-10 00:00:00.0000, -3.727846456798905E+08, -3.338378934288620E+08, 1.540508202630106E+07,
2460357.500000000, A.D. 2024-Feb-17 00:00:00.0000, -3.665080142479576E+08, -3.413826202667659E+08, 1.717629215878999E+07,
2460364.500000000, A.D. 2024-Feb-24 00:00:00.0000, -3.600900693478492E+08, -3.487957284996921E+08, 1.894087977594683E+07,
2460371.500000000, A.D. 2024-Mar-02 00:00:00.0000, -3.535337154718239E+08, -3.560747731950377E+08, 2.069818696681787E+07,
2460378.500000000, A.D. 2024-Mar-09 00:00:00.0000, -3.468418967896000E+08, -3.632173810749514E+08, 2.244756285302106E+07,
2460385.500000000, A.D. 2024-Mar-16 00:00:00.0000, -3.400175945080566E+08, -3.702212511355447E+08, 2.418836373643294E+07,
2460392.500000000, A.D. 2024-Mar-23 00:00:00.0000, -3.330638237966248E+08, -3.770841540667580E+08, 2.591995328849208E+07,
2460399.500000000, A.D. 2024-Mar-30 00:00:00.0000, -3.259836325206286E+08, -3.838039305003634E+08, 2.764170298451214E+07,
2460406.500000000, A.D. 2024-Apr-06 00:00:00.0000, -3.187801015275300E+08, -3.903784914552636E+08, 2.935299248429088E+07,
2460413.500000000, A.D. 2024-Apr-13 00:00:00.0000, -3.114563429368392E+08, -3.968058201459672E+08, 3.105320970179731E+07,
2460420.500000000, A.D. 2024-Apr-20 00:00:00.0000, -3.040154973879680E+08, -4.030839724791323E+08, 3.274175087027173E+07,
2460427.500000000, A.D. 2024-Apr-27 00:00:00.0000, -2.964607317644541E+08, -4.092110768002976E+08, 3.441802069619848E+07,
2460434.500000000, A.D. 2024-May-04 00:00:00.0000, -2.887952373075001E+08, -4.151853335948735E+08, 3.608143253669873E+07,
2460441.500000000, A.D. 2024-May-11 00:00:00.0000, -2.810222278811395E+08, -4.210050152461827E+08, 3.773140857024068E+07,
2460448.500000000, A.D. 2024-May-18 00:00:00.0000, -2.731449383077849E+08, -4.266684658302191E+08, 3.936737995507093E+07,
2460455.500000000, A.D. 2024-May-25 00:00:00.0000, -2.651666227502877E+08, -4.321741009556164E+08, 4.098878697278349E+07,
2460462.500000000, A.D. 2024-Jun-01 00:00:00.0000, -2.570905530814689E+08, -4.375204077076065E+08, 4.259507914718841E+07,
2460469.500000000, A.D. 2024-Jun-08 00:00:00.0000, -2.489200169954829E+08, -4.427059447203641E+08, 4.418571531441128E+07,
2460476.500000000, A.D. 2024-Jun-15 00:00:00.0000, -2.406583154622192E+08, -4.477293418341843E+08, 4.576016365258116E+07,
2460483.500000000, A.D. 2024-Jun-22 00:00:00.0000, -2.323087605306304E+08, -4.525892981637180E+08, 4.731790185979517E+07,
2460490.500000000, A.D. 2024-Jun-29 00:00:00.0000, -2.238746756029170E+08, -4.572845803993142E+08, 4.885841752651905E+07,
2460497.500000000, A.D. 2024-Jul-06 00:00:00.0000, -2.153593955349065E+08, -4.618140238146464E+08, 5.038120825827187E+07,
2460504.500000000, A.D. 2024-Jul-13 00:00:00.0000, -2.067662646144212E+08, -4.661765331590433E+08, 5.188578160115297E+07,
2460511.500000000, A.D. 2024-Jul-20 00:00:00.0000, -1.980986344044164E+08, -4.703710822875310E+08, 5.337165504669321E+07,
2460518.500000000, A.D. 2024-Jul-27 00:00:00.0000, -1.893598621075060E+08, -4.743967134890929E+08, 5.483835609802942E+07,
2460525.500000000, A.D. 2024-Aug-03 00:00:00.0000, -1.805533091791275E+08, -4.782525368890400E+08, 5.628542234178753E+07,
2460532.500000000, A.D. 2024-Aug-10 00:00:00.0000, -1.716823400234869E+08, -4.819377299310545E+08, 5.771240151007125E+07,
2460539.500000000, A.D. 2024-Aug-17 00:00:00.0000, -1.627503207248290E+08, -4.854515369185768E+08, 5.911885152998267E+07,
2460546.500000000, A.D. 2024-Aug-24 00:00:00.0000, -1.537606177862548E+08, -4.887932686393667E+08, 6.050434055637018E+07,
2460553.500000000, A.D. 2024-Aug-31 00:00:00.0000, -1.447165967607461E+08, -4.919623021362484E+08, 6.186844697230114E+07,
2460560.500000000, A.D. 2024-Sep-07 00:00:00.0000, -1.356216204093259E+08, -4.949580804989848E+08, 6.321075933419231E+07,
2460567.500000000, A.D. 2024-Sep-14 00:00:00.0000, -1.264790463016278E+08, -4.977801116823146E+08, 6.453087633524628E+07,
2460574.500000000, A.D. 2024-Sep-21 00:00:00.0000, -1.172922258880328E+08, -5.004279659376889E+08, 6.582840700688832E+07,
2460581.500000000, A.D. 2024-Sep-28 00:00:00.0000, -1.080645055304381E+08, -5.029012750860241E+08, 6.710297093880516E+07,
2460588.500000000, A.D. 2024-Oct-05 00:00:00.0000, -9.879922582103223E+07, -5.051997336303127E+08, 6.835419818088892E+07,
2460595.500000000, A.D. 2024-Oct-12 00:00:00.0000, -8.949971954889314E+07, -5.073230987292042E+08, 6.958172910371208E+07,
2460602.500000000, A.D. 2024-Oct-19 00:00:00.0000, -8.016931006454143E+07, -5.092711893036446E+08, 7.078521435611756E+07,
2460609.500000000, A.D. 2024-Oct-26 00:00:00.0000, -7.081131007411875E+07, -5.110438850794672E+08, 7.196431485766172E+07,
2460616.500000000, A.D. 2024-Nov-02 00:00:00.0000, -6.142902060544057E+07, -5.126411257158800E+08, 7.311870179055563E+07,
2460623.500000000, A.D. 2024-Nov-09 00:00:00.0000, -5.202573004909290E+07, -5.140629100004581E+08, 7.424805658432060E+07,
2460630.500000000, A.D. 2024-Nov-16 00:00:00.0000, -4.260471324839383E+07, -5.153092951114064E+08, 7.535207089116165E+07,
2460637.500000000, A.D. 2024-Nov-23 00:00:00.0000, -3.316923059093920E+07, -5.163803959978954E+08, 7.643044654403752E+07,
2460644.500000000, A.D. 2024-Nov-30 00:00:00.0000, -2.372252689306896E+07, -5.172763849219375E+08, 7.748289547520956E+07,
2460651.500000000, A.D. 2024-Dec-07 00:00:00.0000, -1.426782965748481E+07, -5.179974907419129E+08, 7.850913959153436E+07,
2460658.500000000, A.D. 2024-Dec-14 00:00:00.0000, -4.808347392346318E+06, -5.185439967142641E+08, 7.950891076998344E+07,
2460665.500000000, A.D. 2024-Dec-21 00:00:00.0000, 4.652729690058655E+06, -5.189162380540937E+08, 8.048195108476771E+07,
2460672.500000000, A.D. 2024-Dec-28 00:00:00.0000, 1.411222856855339E+07, -5.191146022220198E+08, 8.142801284272753E+07,
2460679.500000000, A.D. 2025-Jan-04 00:00:00.0000, 2.356699450055049E+07, -5.191395295621414E+08, 8.234685838336070E+07,
2460686.500000000, A.D. 2025-Jan-11 00:00:00.0000, 3.301389248114644E+07, -5.189915126325271E+08, 8.323825994676323E+07,
2460693.500000000, A.D. 2025-Jan-18 00:00:00.0000, 4.244980815739188E+07, -5.186710951478028E+08, 8.410199961898360E+07,
2460700.500000000, A.D. 2025-Jan-25 00:00:00.0000, 5.187164844178847E+07, -5.181788710089119E+08, 8.493786929407491E+07,
2460707.500000000, A.D. 2025-Feb-01 00:00:00.0000, 6.127634201513393E+07, -5.175154834505969E+08, 8.574567063334426E+07,
$$EOE